C/2022 S4 (Lemmon),e,101.2153,220.1786,268.5621,1415,0.0000185,0.99804866,0.0000,07/18.7816/2024,2000,g  8.0,4.0
# From MPEC 2023-HD1
C/2022 S5 (PANSTARRS),e,136.5113,214.8653,232.7994,20.51854,0.0106044,0.89385532,9.9280,06/21.0/2025,2000,g 16.3,4.0
# From MPEC 2024-O39
C/2022 T1 (Lemmon),h,02/17.4420/2024,22.5421,236.9155,324.2930,1.000371,3.444299,2000,9.0,4.0
# From MPC184410
C/2022 U1 (Leonard),h,03/26.0934/2024,128.1480,72.5279,78.6129,1.000222,4.202267,2000,8.5,4.0
# From MPEC 2023-VM5
C/2022 U2 (ATLAS),e,48.2498,304.4043,148.0102,98.29301,0.0010114,0.98647258,0.0000,01/14.2726/2023,2000,g 16.0,4.0
# From MPC182880
C/2022 U3 (Bok),h,07/28.6608/2024,33.6618,272.7882,189.1329,1.000149,4.826834,2000,7.5,4.0
# From MPEC 2023-W26
C/2022 U4 (Bok),e,52.0529,132.9163,88.9855,2886,0.0000064,0.99899620,0.0000,08/03.6433/2023,2000,g 10.5,4.0
# From MPEC 2024-H50
C/2022 V2 (Lemmon),e,98.9022,332.8547,168.9547,36.64589,0.0044429,0.94367130,2.6531,06/21.0/2025,2000,g 12.0,4.0
# From MPEC 2023-CD7
P/2022 W1 (Rankin),e,13.4640,38.8296,17.9305,6.975439,0.0534991,0.51647489,53.9737,06/21.0/2025,2000,g 12.5,4.0
# From MPEC 2024-EF7
C/2022 W2 (ATLAS),e,63.5021,320.4363,123.3151,342.7210,0.0001553,0.99088215,0.0000,03/08.7385/2023,2000,g 11.5,4.0
# From MPEC 2024-C04
C/2022 W3 (Leonard),e,103.5815,132.3034,116.5123,277.9640,0.0002127,0.99497459,0.0000,06/22.8237/2023,2000,g 13.0,4.0
# From MPEC 2023-M14
C/2022 Y1 (Hogan),e,18.8558,285.8767,174.8820,12.61474,0.0219982,0.76531094,20.5973,06/21.0/2025,2000,g  9.0,4.0
# From MPEC 2023-TM6
C/2022 Y2 (Lemmon),e,165.8919,216.3730,105.4788,19.72765,0.0112484,0.87113805,9.2414,06/21.0/2025,2000,g 13.5,4.0
# From MPEC 2024-GJ3
C/2023 A1 (Leonard),e,94.7415,318.2659,159.2640,221.2577,0.0002995,0.99170161,0.0000,03/18.5873/2023,2000,g 14.5,4.0
# From MPEC 2023-J95
C/2023 A2 (SWAN),e,94.7062,94.5086,142.4937,406.6967,0.0001202,0.99767639,0.0000,01/20.3642/2023,2000,g 13.5,4.0
# From MPC184410
C/2023 A3 (Tsuchinshan-ATLAS),h,09/27.7434/2024,139.1112,21.5744,308.5086,1.000121,0.391512,2000,6.5,3.2
# From MPEC 2024-F34
P/2023 B1 (PANSTARRS),e,14.5883,78.5601,81.7132,7.065924,0.0524748,0.13094822,40.8856,06/21.0/2025,2000,g  5.5,4.0
# From MPEC 2023-XP6
C/2023 B2 (ATLAS),e,40.7668,218.0899,317.3632,596.7694,0.0000676,0.99708326,0.0000,03/10.6085/2023,2000,g 14.5,4.0
# From MPEC 2023-F81
P/2023 B3 (PANSTARRS),e,9.1566,153.9856,240.3803,4.550369,0.1015393,0.12236291,177.6010,06/21.0/2025,2000,g 10.5,4.0
# From MPC184410
C/2023 C2 (ATLAS),e,48.3217,301.0046,357.4469,2400,0.0000084,0.99901326,0.0000,11/16.7849/2024,2000,g  7.0,4.0
# From MPEC 2024-D33
C/2023 E1 (ATLAS),e,38.2813,164.5191,105.9494,19.25191,0.0116679,0.94662898,8.4142,06/21.0/2025,2000,g 15.5,4.0
# From MPEC 2023-N01
C/2023 F1 (PANSTARRS),e,131.6945,25.3072,216.7326,245.2477,0.0002566,0.99302649,0.0000,06/28.0901/2023,2000,g 16.0,4.0
# From MPC184410
C/2023 F3 (ATLAS),h,02/02.6247/2025,145.9636,109.4656,265.5328,1.003393,5.190783,2000,6.0,4.0
# From MPC184410
C/2023 H1 (PANSTARRS),e,21.7828,292.6467,333.7513,758.8620,0.0000471,0.99413914,0.0000,11/28.6353/2024,2000,g  8.5,4.0
# From MPEC 2024-GJ3
C/2023 H2 (Lemmon),e,113.7474,217.0729,150.6877,247.4460,0.0002532,0.99638193,0.0000,10/29.1595/2023,2000,g 14.0,4.0
# From MPEC 2023-R20
C/2023 H3 (PANSTARRS),e,2.4889,55.0898,193.2668,13.61568,0.0196176,0.61575074,9.5861,06/21.0/2025,2000,g 10.0,4.0
# From MPEC 2023-SQ0
A/2023 H4,e,76.5686,230.8265,65.0175,141.9575,0.0005827,0.98503695,0.0000,08/08.6949/2023,2000,g 18.0,2.0
# From MPC184410
C/2023 H5 (Lemmon),h,06/30.2820/2025,97.8554,159.4784,60.1002,1.000463,4.312579,2000,7.0,4.0
# From MPEC 2024-UA9
P/2023 JN16 (Lemmon),e,3.7021,11.8718,353.2145,2.695983,0.2226530,0.14695610,38.3409,06/21.0/2025,2000,g 14.0,4.0
# From MPEC 2024-GJ3
C/2023 K1 (ATLAS),e,137.9976,223.6980,337.4189,621.2819,0.0000636,0.99671848,0.0000,09/07.5719/2023,2000,g 13.0,4.0
# From MPEC 2023-N01
P/2023 M1 (PANSTARRS),e,12.2889,216.8598,79.6998,6.841173,0.0550818,0.58680846,30.5527,06/21.0/2025,2000,g 13.5,4.0
# From MPEC 2024-TD8
P/2023 M2 (PANSTARRS),e,19.7271,83.2505,243.4888,5.580979,0.0747547,0.36999308,51.9108,06/21.0/2025,2000,g 12.5,4.0
# From MPEC 2024-TP3
P/2023 M4 (ATLAS),e,7.5919,296.2835,320.5174,5.446346,0.0775436,0.27893123,90.2892,06/21.0/2025,2000,g  7.5,4.0
# From MPEC 2024-MB8
C/2023 P1 (Nishimura),e,132.4780,66.8307,116.2510,56.41569,0.0023260,0.99602230,0.0000,09/17.6186/2023,2000,g 10.0,4.0
# From MPC184410
C/2023 Q1 (PANSTARRS),h,12/01.1262/2024,36.6449,7.1239,84.4182,1.004973,2.575805,2000,10.0,4.0
# From MPEC 2024-N80
C/2023 Q2 (PANSTARRS),e,104.0619,92.6797,171.6907,344.2155,0.0001543,0.99067708,0.0000,06/23.9446/2024,2000,g 11.5,4.0
# From MPC184410
C/2023 R1 (PANSTARRS),h,04/13.4799/2026,149.3169,62.5626,144.2733,1.002217,3.569834,2000,6.0,4.0
# From MPEC 2024-L77
C/2023 R2 (PANSTARRS),h,08/12.1600/2024,30.6894,188.8989,337.3135,1.000283,0.905089,2000,10.5,4.0
# From MPEC 2023-UR6
A/2023 R3,e,12.0807,347.3408,86.9437,718.7772,0.0000511,0.99810971,0.0000,12/18.1795/2023,2000,g 20.0,2.0
# From MPEC 2024-YC7
C/2023 RN3 (ATLAS),e,10.3515,207.0642,130.6114,10.16939,0.0303922,0.49057579,26.8205,06/21.0/2025,2000,g  7.5,4.0
# From MPC184411
C/2023 RS61,e,19.9447,347.0205,119.4092,11.89898,0.0240126,0.32783451,329.7638,06/21.0/2025,2000,g  6.8,4.0
# From MPC184411
P/2023 S1 (PANSTARRS),e,9.1578,317.2904,180.3063,3.843855,0.1307837,0.31846640,15.2786,06/21.0/2025,2000,g 11.5,4.0
# From MPEC 2023-XP6
C/2023 S2 (ATLAS),e,19.6588,229.4676,78.9482,165.9023,0.0004612,0.99360138,0.0000,10/15.3514/2023,2000,g 15.0,4.0
# From MPEC 2024-P23
C/2023 S3 (Lemmon),e,140.4934,233.8232,281.5323,28.42595,0.0065033,0.97082567,0.0000,01/19.6487/2024,2000,g 16.0,4.0
# From MPEC 2024-BE0
P/2023 T1 (PANSTARRS),e,6.6123,249.5765,202.8635,4.225738,0.1134619,0.33322150,44.7202,06/21.0/2025,2000,g 14.0,4.0
# From MPEC 2024-GJ3
C/2023 T2 (Borisov),e,48.5910,317.5271,111.2158,223.9563,0.0002941,0.99108630,0.0000,12/22.7471/2023,2000,g 14.5,4.0
# From MPC184411
C/2023 T3 (Fuls),e,27.2214,246.0019,302.8475,858.2475,0.0000392,0.99586561,0.0000,01/25.3539/2025,2000,g  8.5,4.0
# From MPEC 2024-VB7
C/2023 TD22 (Lemmon),e,170.4898,5.5641,32.5410,48.36687,0.0029301,0.95127478,0.8137,06/21.0/2025,2000,g 12.5,4.0
# From MPC184411
C/2023 U1 (Fuls),e,108.1459,305.8041,255.6448,2606,0.0000074,0.99809193,0.0000,10/12.9249/2024,2000,g  8.0,4.0
# From MPC184411
C/2023 V1 (Lemmon),h,07/13.0457/2025,102.0138,15.0423,103.3154,1.000378,5.092566,2000,8.5,4.0
# From MPC184411
P/2023 V2 (PANSTARRS),e,9.8884,95.4744,330.5179,7.219868,0.0508054,0.57005421,25.5719,06/21.0/2025,2000,g 13.5,4.0
# From MPEC 2024-A43
C/2023 V3 (PANSTARRS),e,40.7019,91.2923,291.8443,12.86549,0.0213582,0.65108509,14.6765,06/21.0/2025,2000,g 11.5,4.0
# From MPEC 2024-UQ8
C/2023 V4 (Camarasa-Duszanowicz),h,05/30.3915/2024,67.1255,66.3269,50.8698,1.001160,1.121901,2000,12.0,4.0
# From MPEC 2024-GJ3
C/2023 V5 (Leonard),h,12/13.9068/2023,73.5503,31.5153,56.9685,1.009424,0.846315,2000,21.5,4.0
# From MPEC 2025-A40
P/2023 V6 (PANSTARRS),e,3.9723,189.6468,192.4869,5.295101,0.0808896,0.17551994,75.4029,06/21.0/2025,2000,g 11.5,4.0
# From MPEC 2024-GJ3
C/2023 X1 (Leonard),e,110.5885,136.9926,321.4683,155.8372,0.0005066,0.99389695,0.0000,10/17.9732/2023,2000,g 13.5,3.2
# From MPC184411
C/2023 X2 (Lemmon),h,12/28.1789/2025,76.9825,66.3033,64.7655,1.000095,5.088775,2000,8.5,3.2
# From MPEC 2024-A43
P/2023 X3 (PANSTARRS),e,4.4833,62.0137,40.8676,4.245821,0.1126579,0.28618424,47.8631,06/21.0/2025,2000,g 15.5,4.0
# From MPC184411
C/2023 X4 (Hogan),e,11.5935,28.7695,100.5908,9.921724,0.0315372,0.63127157,12.3609,06/21.0/2025,2000,g 12.0,4.0
# From MPEC 2024-DA2
C/2023 X7 (PANSTARRS),h,05/15.2279/2025,69.0910,119.1981,354.4013,1.002521,4.820341,2000,9.0,4.0
# From MPEC 2024-JU4
P/2023 Y1 (Gibbs),e,6.3839,78.8561,51.4783,3.750353,0.1357050,0.44536309,77.2269,06/21.0/2025,2000,g 17.0,4.0
# From MPEC 2025-A40
P/2023 Y2 (Gibbs),e,6.9926,79.2290,16.9019,3.747286,0.1358716,0.39227304,92.5141,06/21.0/2025,2000,g 15.5,4.0
# From MPC184411
C/2024 A1 (ATLAS),h,06/13.6824/2025,94.4663,112.1352,353.3066,1.002482,3.875294,2000,7.0,4.0
# From MPC182881
C/2024 A2 (ATLAS),e,119.1145,78.1652,295.4949,32.27988,0.0053741,0.94177752,2.2474,06/21.0/2025,2000,g 12.5,4.0
# From MPC184411
C/2024 B1 (Lemmon),h,10/07.7193/2024,70.9029,79.1885,66.2170,1.001026,1.633803,2000,13.0,4.0
# From MPEC 2025-A40
C/2024 B2 (Lemmon),e,99.8688,294.3857,130.3370,1978,0.0000112,0.99793810,0.0000,10/05.8549/2023,2000,g 11.5,4.0
# From MPC184412
C/2024 C1 (PANSTARRS),e,14.2269,83.8096,94.4886,10.58202,0.0286319,0.58298379,8.4161,06/21.0/2025,2000,g 11.5,4.0
# From MPEC 2024-JU4
C/2024 C2 (PANSTARRS),e,27.2844,66.4456,87.5727,16.22703,0.0150781,0.44590126,1.5349,06/21.0/2025,2000,g  6.0,4.0
# From MPC184412
C/2024 C3 (PANSTARRS),e,22.4549,359.7060,159.6886,11.66758,0.0247305,0.42464353,14.5977,06/21.0/2025,2000,g  9.0,4.0
# From MPEC 2024-Q20
C/2024 C4 (ATLAS),e,79.2831,220.6716,321.4991,83.45458,0.0012928,0.98237929,0.0000,01/30.1903/2024,2000,g 14.5,4.0
# From MPC184412
C/2024 D1 (Lemmon),e,132.4499,179.6617,125.7745,9227,0.0000011,0.99927461,0.0000,12/03.3880/2027,2000,g  7.3,4.0
# From MPC184412
C/2024 E1 (Wierzchos),h,01/20.7605/2026,75.2391,108.0799,243.6330,1.000071,0.565978,2000,7.0,4.0
# From MPEC 2024-JU4
C/2024 E2 (Bok),e,155.6495,135.6537,358.1336,51.51670,0.0026655,0.85063284,1.6123,06/21.0/2025,2000,g  8.0,4.0
# From MPEC 2024-JU4
P/2024 F1 (PANSTARRS),e,7.0052,251.5413,229.5766,3.444028,0.1542070,0.45998090,93.1755,06/21.0/2025,2000,g 16.0,4.0
# From MPEC 2024-Q20
C/2024 F2 (PANSTARRS),e,13.7429,138.9400,112.8887,9.947198,0.0314161,0.60110117,10.2740,06/21.0/2025,2000,g 11.0,4.0
# From MPEC 2024-UA9
P/2024 FG9 (Nanshan-Hahn),e,1.7312,253.0426,245.9336,3.257614,0.1676311,0.50991920,66.4822,06/21.0/2025,2000,g 14.0,4.0
# From MPC184412
C/2024 G1 (Wierzchos),e,95.3937,30.6052,128.2239,122.1753,0.0007298,0.96783211,0.1773,06/21.0/2025,2000,g 10.0,4.0
# From MPC184412
